{
    "type": "FeatureCollection",
    "features": [
        {
            "type": "Feature",
            "properties": {
                "dt_code": "033",
                "name": "Shimla",
                "st_code": "02",
                "year": "2011_c",
                "st_nm": "Himachal Pradesh"
            },
            "geometry": {
                "type": "Polygon",
                "coordinates": [
                    [
                        [
                            77.38280364934204,
                            31.36049082474924
                        ],
                        [
                            77.38280364934204,
                            31.360166364589205
                        ],
                        [
                            77.39828323266616,
                            31.36146420522935
                        ],
                        [
                            77.42924239931439,
                            31.340374294827004
                        ],
                        [
                            77.48814032610859,
                            31.355299462188665
                        ],
                        [
                            77.51721173869291,
                            31.34816133866787
                        ],
                        [
                            77.5538341675329,
                            31.39034115947256
                        ],
                        [
                            77.59611985856463,
                            31.399101583793534
                        ],
                        [
                            77.6289667792768,
                            31.390016699312525
                        ],
                        [
                            77.6334973890302,
                            31.40104834475375
                        ],
                        [
                            77.62103821220833,
                            31.4266806973966
                        ],
                        [
                            77.62783412683844,
                            31.45133966955934
                        ],
                        [
                            77.66936471624462,
                            31.4626957751606
                        ],
                        [
                            77.70711979752295,
                            31.50163099436493
                        ],
                        [
                            77.69881367964172,
                            31.54218851436944
                        ],
                        [
                            77.64859942154152,
                            31.58307049453398
                        ],
                        [
                            77.64557901503926,
                            31.61519205037755
                        ],
                        [
                            77.66256880161451,
                            31.633686279499607
                        ],
                        [
                            77.64595656585205,
                            31.66256323374282
                        ],
                        [
                            77.67804838493863,
                            31.703120753747328
                        ],
                        [
                            77.74260957392458,
                            31.712854558548408
                        ],
                        [
                            77.74789528530356,
                            31.713827939028516
                        ],
                        [
                            77.74789528530356,
                            31.713503478868482
                        ],
                        [
                            77.77205853732168,
                            31.705391974867577
                        ],
                        [
                            77.79282383202477,
                            31.674243799504115
                        ],
                        [
                            77.81283402510229,
                            31.66256323374282
                        ],
                        [
                            77.82340544786022,
                            31.634659659979718
                        ],
                        [
                            77.81207892347672,
                            31.60967622765694
                        ],
                        [
                            77.83812992955878,
                            31.580474813253694
                        ],
                        [
                            77.8396401328099,
                            31.5058489764454
                        ],
                        [
                            77.85889522426186,
                            31.509418038205794
                        ],
                        [
                            77.86833399458145,
                            31.501306534204893
                        ],
                        [
                            77.88117072221608,
                            31.48995042860363
                        ],
                        [
                            77.88117072221608,
                            31.469833898681397
                        ],
                        [
                            77.89665030554019,
                            31.44549938667869
                        ],
                        [
                            77.89740540716576,
                            31.44485046635862
                        ],
                        [
                            77.89778295797855,
                            31.444526006198583
                        ],
                        [
                            77.92685437056286,
                            31.423111635636204
                        ],
                        [
                            77.93440538681854,
                            31.423436095796237
                        ],
                        [
                            77.96083394371337,
                            31.408186468274543
                        ],
                        [
                            77.96574210427956,
                            31.402346185393895
                        ],
                        [
                            77.97102781565852,
                            31.40202172523386
                        ],
                        [
                            78.02199717538427,
                            31.399101583793534
                        ],
                        [
                            78.05446654528365,
                            31.41759581291559
                        ],
                        [
                            78.10166039688157,
                            31.41921811371577
                        ],
                        [
                            78.16320117936526,
                            31.383203035951766
                        ],
                        [
                            78.15036445173062,
                            31.36081528490928
                        ],
                        [
                            78.16244607773969,
                            31.34426781674744
                        ],
                        [
                            78.21152768340153,
                            31.324151286825202
                        ],
                        [
                            78.23757868948358,
                            31.34167213546715
                        ],
                        [
                            78.2575888825611,
                            31.326746968105493
                        ],
                        [
                            78.2915684557116,
                            31.32609804778542
                        ],
                        [
                            78.30213987846953,
                            31.31539086250423
                        ],
                        [
                            78.29421131140109,
                            31.291056350501524
                        ],
                        [
                            78.29421131140109,
                            31.290407430181453
                        ],
                        [
                            78.30440518334623,
                            31.285864987940947
                        ],
                        [
                            78.31120109797634,
                            31.282944846500623
                        ],
                        [
                            78.31082354716355,
                            31.282620386340586
                        ],
                        [
                            78.30629293741015,
                            31.25990817513806
                        ],
                        [
                            78.28288478701758,
                            31.266397378338784
                        ],
                        [
                            78.2462623581776,
                            31.230706760734815
                        ],
                        [
                            78.22021135209555,
                            31.233951362335176
                        ],
                        [
                            78.20473176877142,
                            31.2206484957737
                        ],
                        [
                            78.19491544763906,
                            31.221621876253806
                        ],
                        [
                            78.16018077286299,
                            31.225515398174238
                        ],
                        [
                            78.10354815094549,
                            31.185606798489804
                        ],
                        [
                            78.04276247008737,
                            31.17846867496901
                        ],
                        [
                            78.0303032932655,
                            31.150889561365943
                        ],
                        [
                            78.0008543298684,
                            31.161921206807172
                        ],
                        [
                            77.98461964491872,
                            31.15705430440663
                        ],
                        [
                            77.96725230753069,
                            31.173601772568468
                        ],
                        [
                            77.92496661649895,
                            31.150565101205906
                        ],
                        [
                            77.89853805960412,
                            31.150240641045873
                        ],
                        [
                            77.89060949253566,
                            31.121688146962697
                        ],
                        [
                            77.86380338482805,
                            31.108709740561256
                        ],
                        [
                            77.8513442080062,
                            31.073343583117325
                        ],
                        [
                            77.83812992955878,
                            31.072694662797254
                        ],
                        [
                            77.8241605494858,
                            31.05549827431534
                        ],
                        [
                            77.81132382185116,
                            31.05906733607574
                        ],
                        [
                            77.82944626086476,
                            31.029541461512455
                        ],
                        [
                            77.82982381167754,
                            31.028892541192384
                        ],
                        [
                            77.81623198241734,
                            31.0308393021526
                        ],
                        [
                            77.80754831372332,
                            31.016238594950977
                        ],
                        [
                            77.82491565111135,
                            31.009749391750255
                        ],
                        [
                            77.83171156574146,
                            30.994175304068524
                        ],
                        [
                            77.81434422835342,
                            30.96172928806492
                        ],
                        [
                            77.83775237874599,
                            30.95329332390398
                        ],
                        [
                            77.8169870840429,
                            30.953942244224052
                        ],
                        [
                            77.81396667754063,
                            30.953942244224052
                        ],
                        [
                            77.78602791739468,
                            30.967569570945567
                        ],
                        [
                            77.77205853732168,
                            30.97405877414629
                        ],
                        [
                            77.75922180968705,
                            30.962702668545028
                        ],
                        [
                            77.74940548855469,
                            30.952644403583907
                        ],
                        [
                            77.7626197670021,
                            30.918251626620087
                        ],
                        [
                            77.81321157591508,
                            30.921820688380482
                        ],
                        [
                            77.81509932997899,
                            30.904299839738535
                        ],
                        [
                            77.80150750071878,
                            30.89326819429731
                        ],
                        [
                            77.8056605596594,
                            30.853359594612872
                        ],
                        [
                            77.77923200276457,
                            30.860497718133665
                        ],
                        [
                            77.77356874057283,
                            30.87769410661558
                        ],
                        [
                            77.7580891572487,
                            30.87672072613547
                        ],
                        [
                            77.74411977717571,
                            30.846545931252116
                        ],
                        [
                            77.76110956375096,
                            30.82610494116984
                        ],
                        [
                            77.70372184020789,
                            30.764133050602954
                        ],
                        [
                            77.70372184020789,
                            30.764133050602954
                        ],
                        [
                            77.65879329348668,
                            30.806961791727716
                        ],
                        [
                            77.6240586187106,
                            30.80988193316804
                        ],
                        [
                            77.60027291750525,
                            30.77938267812465
                        ],
                        [
                            77.54666070209002,
                            30.774191315564075
                        ],
                        [
                            77.54854845615394,
                            30.800472588526993
                        ],
                        [
                            77.52967091551477,
                            30.799823668206923
                        ],
                        [
                            77.52098724682075,
                            30.78587188132537
                        ],
                        [
                            77.49229338504921,
                            30.795281225966416
                        ],
                        [
                            77.49153828342365,
                            30.842652409331684
                        ],
                        [
                            77.47870155578902,
                            30.864715700214134
                        ],
                        [
                            77.4515178972686,
                            30.863093399413955
                        ],
                        [
                            77.43528321231892,
                            30.87509842533529
                        ],
                        [
                            77.43792606800841,
                            30.889374672376874
                        ],
                        [
                            77.41791587493088,
                            30.928958811901275
                        ],
                        [
                            77.44321177938737,
                            30.944857359743043
                        ],
                        [
                            77.43943627125954,
                            30.979250136706867
                        ],
                        [
                            77.37940569202698,
                            31.020781037191483
                        ],
                        [
                            77.36958937089462,
                            31.005531409669786
                        ],
                        [
                            77.33636489936968,
                            30.998393286148993
                        ],
                        [
                            77.30125267378082,
                            30.967569570945567
                        ],
                        [
                            77.29823226727856,
                            30.952968863743944
                        ],
                        [
                            77.26651799900476,
                            30.94096383782261
                        ],
                        [
                            77.24726290755281,
                            30.917602706300013
                        ],
                        [
                            77.24688535674002,
                            30.918900546940158
                        ],
                        [
                            77.23933434048435,
                            30.939665997182466
                        ],
                        [
                            77.24952821242951,
                            30.947777501183367
                        ],
                        [
                            77.2042221148955,
                            30.967569570945567
                        ],
                        [
                            77.21139558033839,
                            30.987361640707768
                        ],
                        [
                            77.1974262002654,
                            31.0029357283895
                        ],
                        [
                            77.17099764337057,
                            31.01169615271047
                        ],
                        [
                            77.16420172874047,
                            30.999691126789138
                        ],
                        [
                            77.11889563120646,
                            31.03148822247267
                        ],
                        [
                            77.1019058446312,
                            31.029541461512455
                        ],
                        [
                            77.06679361904236,
                            31.04803569063451
                        ],
                        [
                            77.08793646455823,
                            31.06620545959653
                        ],
                        [
                            77.08076299911534,
                            31.081779547278263
                        ],
                        [
                            77.05508954384607,
                            31.084699688718587
                        ],
                        [
                            77.03583445239411,
                            31.06717884007664
                        ],
                        [
                            77.02413037719784,
                            31.085024148878624
                        ],
                        [
                            77.05395689140772,
                            31.09994931624028
                        ],
                        [
                            77.04829362921598,
                            31.11422556328187
                        ],
                        [
                            76.99770182030299,
                            31.103193917840642
                        ],
                        [
                            76.99241610892403,
                            31.10838528040122
                        ],
                        [
                            76.99203855811125,
                            31.108709740561256
                        ],
                        [
                            76.98901815160897,
                            31.11162988200158
                        ],
                        [
                            77.01167120037599,
                            31.11422556328187
                        ],
                        [
                            77.01016099712486,
                            31.13466655336414
                        ],
                        [
                            77.03545690158134,
                            31.15218740200609
                        ],
                        [
                            77.03319159670464,
                            31.17846867496901
                        ],
                        [
                            77.00147732843084,
                            31.195989523610958
                        ],
                        [
                            77.02110997069556,
                            31.22129741609377
                        ],
                        [
                            77.00336508249475,
                            31.24530746793644
                        ],
                        [
                            77.03054874101515,
                            31.272886581539503
                        ],
                        [
                            77.03054874101515,
                            31.272886581539503
                        ],
                        [
                            77.05282423896936,
                            31.26509953769864
                        ],
                        [
                            77.07396708448523,
                            31.257961414177846
                        ],
                        [
                            77.0864262613071,
                            31.24920098985687
                        ],
                        [
                            77.12380379177264,
                            31.248876529696837
                        ],
                        [
                            77.12380379177264,
                            31.24790314921673
                        ],
                        [
                            77.12531399502377,
                            31.24790314921673
                        ],
                        [
                            77.12871195233883,
                            31.230057840414744
                        ],
                        [
                            77.14003847672232,
                            31.229733380254707
                        ],
                        [
                            77.15476295842087,
                            31.230706760734815
                        ],
                        [
                            77.19025273482252,
                            31.253743432097377
                        ],
                        [
                            77.19931395432931,
                            31.242062866336077
                        ],
                        [
                            77.21970169821962,
                            31.261206015778207
                        ],
                        [
                            77.2453751534889,
                            31.251147750817086
                        ],
                        [
                            77.26840575306868,
                            31.27256212137947
                        ],
                        [
                            77.28124248070331,
                            31.263801697058494
                        ],
                        [
                            77.30540573272144,
                            31.268344139299
                        ],
                        [
                            77.3337220436802,
                            31.294300952101885
                        ],
                        [
                            77.34467101725092,
                            31.337129693226647
                        ],
                        [
                            77.35259958431936,
                            31.343943356587403
                        ],
                        [
                            77.36581386276679,
                            31.355623922348702
                        ],
                        [
                            77.37072202333297,
                            31.359517444269134
                        ],
                        [
                            77.38280364934204,
                            31.36049082474924
                        ]
                    ]
                ]
            }
        }
    ]
}