{"type":"FeatureCollection","features":[{"type":"Feature","properties":{"name":"Myanmar"},"geometry":{"type":"Polygon","coordinates":[[[99.5433,20.1866],[98.9597,19.753],[98.2537,19.7082],[97.7978,18.6271],[97.3759,18.4454],[97.8591,17.5679],[98.4938,16.8378],[98.9033,16.1778],[98.5374,15.3085],[98.1921,15.1237],[98.4308,14.622],[99.0978,13.8275],[99.212,13.2693],[99.1964,12.8047],[99.5873,11.8928],[99.0381,10.9605],[98.5536,9.933],[98.4572,10.6753],[98.7645,11.4413],[98.4283,12.033],[98.5096,13.1224],[98.1036,13.6405],[97.7777,14.8373],[97.5971,16.1006],[97.1645,16.9287],[96.5058,16.4272],[95.3694,15.7144],[94.8084,15.8035],[94.1888,16.0379],[94.5335,17.2772],[94.3248,18.2135],[93.541,19.3665],[93.6633,19.727],[93.0783,19.8551],[92.3686,20.6709],[92.3032,21.4755],[92.6523,21.324],[92.6727,22.0412],[93.1661,22.2785],[93.0603,22.7031],[93.2863,23.0437],[93.3252,24.0786],[94.1067,23.8507],[94.5527,24.6752],[94.6032,25.1625],[95.1552,26.0013],[95.1248,26.5736],[96.4194,27.2646],[97.134,27.0838],[97.052,27.6991],[97.4026,27.8825],[97.3271,28.2616],[97.912,28.3359],[98.2462,27.7472],[98.6827,27.5088],[98.7121,26.7435],[98.6718,25.9187],[97.7246,25.0836],[97.6047,23.8974],[98.6603,24.0633],[98.8987,23.1427],[99.532,22.949],[99.2409,22.1183],[99.9835,21.7429],[100.4165,21.5588],[101.15,21.85],[101.18,21.4366],[100.3291,20.7861],[100.116,20.4179],[99.5433,20.1866]]]}}]}