{
  "type": "FeatureCollection",
  "features": [
    {
      "type": "Feature",
      "properties": { "fid": 1.0 ,"name": "Birendranagar"},
      "geometry": {
        "type": "Polygon",
        "coordinates": [
          [
            [81.579021204550386, 28.625788203886611],
            [81.579021208524111, 28.625788212492477],
            [81.57751028961907, 28.62687533325348],
            [81.575932782607779, 28.627785177748386],
            [81.573070910809022, 28.628931516319035],
            [81.572284733245553, 28.62947867942783],
            [81.570946273671638, 28.630404780404866],
            [81.569734550454612, 28.631479192001972],
            [81.569693335379228, 28.634208582101046],
            [81.570136912628328, 28.635140971795344],
            [81.571451673533858, 28.637915483003098],
            [81.572428470821038, 28.640078610334573],
            [81.572774677454504, 28.640847495499347],
            [81.572799406499769, 28.640873042013528],
            [81.574156412857647, 28.642431141541685],
            [81.574701482229955, 28.643051481169348],
            [81.574847795747672, 28.643294732879209],
            [81.575768952683049, 28.644784976393961],
            [81.576018303889271, 28.645378174231972],
            [81.575441292833574, 28.646483177112994],
            [81.575653808066207, 28.648293927941367],
            [81.57703193715021, 28.649657056815364],
            [81.578258085643625, 28.650830735010217],
            [81.579836623031781, 28.652443842928626],
            [81.581067408221188, 28.653545154596099],
            [81.581799490998179, 28.653886486529185],
            [81.583336813310936, 28.654546090387939],
            [81.584557294731482, 28.655828666683952],
            [81.587678306316818, 28.660262634029106],
            [81.586823093502062, 28.662087160743763],
            [81.586525314582289, 28.663578041304177],
            [81.584485168349488, 28.669333418834658],
            [81.584779340950263, 28.673835972212004],
            [81.584832920548294, 28.673985586917436],
            [81.585709771277635, 28.673614487814699],
            [81.586110072697551, 28.673142588884193],
            [81.586602592848763, 28.672743009967004],
            [81.587101552855444, 28.672663003597975],
            [81.587542296568117, 28.672493950391296],
            [81.587630651386007, 28.672413717824771],
            [81.588010860456677, 28.672693966522029],
            [81.588319973522232, 28.67291906896503],
            [81.588461650343973, 28.673006759344041],
            [81.588621358761188, 28.673058288707793],
            [81.590358059001233, 28.673971800677073],
            [81.591938657143189, 28.677077952987535],
            [81.592104032633259, 28.680212939982788],
            [81.59066202018245, 28.681703562648853],
            [81.590736722506634, 28.684723161070377],
            [81.59410412296468, 28.686964753206972],
            [81.59703374204355, 28.686876170608659],
            [81.598454631768305, 28.688046720324401],
            [81.602032100313792, 28.688730062216997],
            [81.604005400846148, 28.688819999078422],
            [81.606527634664104, 28.688584988021443],
            [81.608820223233749, 28.68893117720236],
            [81.610109353514304, 28.68928199764256],
            [81.611923847209155, 28.68977144951004],
            [81.614598190414782, 28.689478140216909],
            [81.616553845742942, 28.689488986800168],
            [81.621827958627122, 28.691731267788992],
            [81.626269913379375, 28.691732284634341],
            [81.627674059479716, 28.691270861799318],
            [81.628762008673448, 28.692072531830046],
            [81.63015089231618, 28.691840352641538],
            [81.631479563309696, 28.689935221040237],
            [81.631828345885339, 28.68943899082117],
            [81.632650071451224, 28.688139651920242],
            [81.633771121502363, 28.686348119598215],
            [81.634353284442525, 28.685424320519971],
            [81.634512992859712, 28.685168511702287],
            [81.634674762030699, 28.684910894416888],
            [81.63480149838756, 28.684709319748119],
            [81.635178616327551, 28.684033183048037],
            [81.635780356428512, 28.682854453014414],
            [81.639178024207567, 28.676021353996678],
            [81.640106393781167, 28.675668342130368],
            [81.644120742126049, 28.676066101894776],
            [81.644854370468337, 28.676199893476102],
            [81.650252257375882, 28.677106598135698],
            [81.654200919194281, 28.677399038094347],
            [81.656637760527843, 28.678355225181374],
            [81.6585943174357, 28.678672181985856],
            [81.661141666690071, 28.677338583996807],
            [81.663152962369978, 28.678949476029295],
            [81.665030566649065, 28.679144959978974],
            [81.667464832040366, 28.67801408593056],
            [81.667769308409945, 28.677871708836108],
            [81.667858951198951, 28.67781882586603],
            [81.669890854416593, 28.676618782060345],
            [81.672517285096987, 28.677413388875074],
            [81.674598131216683, 28.679529599008987],
            [81.67892571413455, 28.677191460047105],
            [81.684427926701545, 28.676310068003133],
            [81.687376865347019, 28.675321996105563],
            [81.690595762736422, 28.674329394825065],
            [81.694540045453024, 28.670301036635514],
            [81.695600818456313, 28.668779513657562],
            [81.695805348268053, 28.668555306383809],
            [81.696055214662692, 28.668421957072095],
            [81.696141766321077, 28.668355056336541],
            [81.696507550115314, 28.668057618765456],
            [81.697871769111345, 28.666994430758105],
            [81.699355511826056, 28.665831782545876],
            [81.700234423309126, 28.662012853490936],
            [81.702114861124599, 28.660117802950211],
            [81.70361818100011, 28.659747106805746],
            [81.707956067686823, 28.658676601312777],
            [81.708118867234688, 28.658587090645415],
            [81.708250755476001, 28.658475880315837],
            [81.708762852787956, 28.658143152771654],
            [81.710086887085438, 28.657287821140329],
            [81.712104880215122, 28.655979041737691],
            [81.717083146136019, 28.655311761391204],
            [81.719666300987228, 28.656541434612425],
            [81.723485564641706, 28.655098375451978],
            [81.728714383875172, 28.655135748161971],
            [81.730228350978493, 28.652464168624228],
            [81.731452438718122, 28.65028924043586],
            [81.732506170812727, 28.649276509035996],
            [81.733151873660816, 28.648673688083388],
            [81.735723694366271, 28.648502486301059],
            [81.736575472591369, 28.647864696919768],
            [81.737612718655825, 28.647093677924108],
            [81.738143019292778, 28.64669701387151],
            [81.739526471990629, 28.64567339666543],
            [81.742672556080109, 28.644738990612101],
            [81.744715449984497, 28.645722829528047],
            [81.746190949684078, 28.647027366408814],
            [81.749845353036946, 28.646583681009535],
            [81.753571195853837, 28.645392472881923],
            [81.757239337565181, 28.643773227995275],
            [81.759695756059543, 28.641536627496194],
            [81.768328940521684, 28.638276289924509],
            [81.776124085117218, 28.634007795434556],
            [81.775764140125304, 28.632647628508124],
            [81.775893280694916, 28.631297090713801],
            [81.776745058920042, 28.62961612921799],
            [81.776161865602987, 28.628158831988433],
            [81.773257576622598, 28.627628242950038],
            [81.768280169349126, 28.624722014505128],
            [81.764995327839117, 28.623447348680173],
            [81.762118515575636, 28.623727125286251],
            [81.759304212843176, 28.622147945403139],
            [81.75754896581924, 28.622172064403944],
            [81.756220638284745, 28.621923186197897],
            [81.756083941617959, 28.621651846476084],
            [81.756130652036788, 28.621508337628565],
            [81.756061960244438, 28.621151072103721],
            [81.756126187070279, 28.620935807732216],
            [81.756098366894406, 28.62074616970596],
            [81.756050626098741, 28.620584570100107],
            [81.756090467338296, 28.620426588155436],
            [81.756390650470834, 28.62008168018308],
            [81.756408853795818, 28.61987591068274],
            [81.756377942489252, 28.619672401989067],
            [81.756235063561164, 28.619525272495252],
            [81.755762464029829, 28.619326285556792],
            [81.755439612605812, 28.619135740135032],
            [81.755214303526913, 28.618921074625415],
            [81.754701175838065, 28.618640079222114],
            [81.754590582052387, 28.61854480593184],
            [81.754433964765838, 28.618288532411935],
            [81.754425721750764, 28.618072659173393],
            [81.754458693811074, 28.617888744472008],
            [81.754320966767438, 28.61753237113388],
            [81.754172592495962, 28.617347852483601],
            [81.753955526432179, 28.61732011435781],
            [81.753650191415204, 28.617405740722511],
            [81.753286124915789, 28.617579405247788],
            [81.753132942218855, 28.617523929111208],
            [81.753015135794968, 28.617289361209782],
            [81.752957434689407, 28.61671530079353],
            [81.752999680141656, 28.616490680711355],
            [81.752985598324244, 28.616322441462632],
            [81.752973920719512, 28.616159026020373],
            [81.752933049103135, 28.615945560447038],
            [81.752753420066128, 28.61580415434107],
            [81.752488269747673, 28.615754707384877],
            [81.752186712779263, 28.615667270637065],
            [81.751554061371763, 28.61538355296436],
            [81.751423890425272, 28.615217120986721],
            [81.751282041874063, 28.614912598025978],
            [81.751216441212378, 28.613385447287037],
            [81.751277576907555, 28.612830662447891],
            [81.751229492652897, 28.612700709705997],
            [81.751020326145195, 28.612539399234262],
            [81.751006587786748, 28.612356680905357],
            [81.750827302208705, 28.612186625937436],
            [81.750821806865332, 28.611989434193728],
            [81.750707778490053, 28.611630025659647],
            [81.750657290022644, 28.611390921817751],
            [81.750352641923598, 28.610869595160636],
            [81.750181599360658, 28.610674210067348],
            [81.749950108020442, 28.61047882461061],
            [81.749791429980121, 28.610233989235113],
            [81.749501550616429, 28.609515611209844],
            [81.749217338325565, 28.609159812509322],
            [81.749198448082694, 28.608955378473564],
            [81.749269200628817, 28.608642696147772],
            [81.749616437639105, 28.608302272383845],
            [81.749887426759912, 28.608137336824274],
            [81.750634793460634, 28.607397988135631],
            [81.750427344247754, 28.606670695523423],
            [81.750452416751912, 28.606168945114778],
            [81.750578122731923, 28.60592138588731],
            [81.750593234926228, 28.605731720749571],
            [81.750512522070224, 28.605490191199344],
            [81.750312285495539, 28.605301580658868],
            [81.750012274092441, 28.605207049109531],
            [81.749810663681913, 28.605206144500983],
            [81.749477165030086, 28.605567384224578],
            [81.749229874577637, 28.605885201785711],
            [81.749082874142033, 28.605970837472661],
            [81.748859969275856, 28.605868315867362],
            [81.748744910523683, 28.605678952168638],
            [81.7487315156242, 28.605460037658457],
            [81.748834896771655, 28.605178403168676],
            [81.748928317609241, 28.604895561775681],
            [81.749053336671324, 28.604335002863149],
            [81.748846574376373, 28.603939986448555],
            [81.748602031595595, 28.603709609777642],
            [81.748112946034084, 28.60353471615614],
            [81.74779833762517, 28.603344142085422],
            [81.747501589082219, 28.603098083913256],
            [81.747097681343277, 28.602927410872027],
            [81.745629050822885, 28.601107886343069],
            [81.745510900940047, 28.600584397811833],
            [81.745473807372164, 28.600140516092473],
            [81.745715602481226, 28.599935461404218],
            [81.745802154139582, 28.599502432836111],
            [81.745956023754445, 28.599231035191632],
            [81.746589362079931, 28.598805241030366],
            [81.74696098467652, 28.59875638918199],
            [81.746814671158816, 28.598431915835036],
            [81.746511053436635, 28.597919270029543],
            [81.745744109575099, 28.597008262107323],
            [81.740349056204124, 28.594318616679359],
            [81.7381028345944, 28.594280016042202],
            [81.73630585730659, 28.594011017458367],
            [81.735447209902276, 28.594317410409669],
            [81.734822801509836, 28.595523673191835],
            [81.734640081342178, 28.595986874421602],
            [81.734862642749391, 28.597140043616065],
            [81.736621152633447, 28.598365573577556],
            [81.738462092668343, 28.599393270756728],
            [81.741962626406348, 28.600452319072257],
            [81.742264870292701, 28.60089137469766],
            [81.74222640288896, 28.602025191178875],
            [81.741105352837863, 28.602305024853607],
            [81.738786317928188, 28.602565558984342],
            [81.736895919802848, 28.602821267780794],
            [81.73476922191179, 28.603689708104326],
            [81.732829365695906, 28.604946521528493],
            [81.731367604354745, 28.606360117127526],
            [81.730867528106501, 28.60801732870404],
            [81.730254797318736, 28.608962916608757],
            [81.728229763280353, 28.611203829466017],
            [81.727405461772207, 28.613278259466302],
            [81.727132068438692, 28.615168126015455],
            [81.726054981134681, 28.616031640190126],
            [81.724007965722748, 28.616456158521839],
            [81.720900349036938, 28.616029228149259],
            [81.718773651145867, 28.615927922382348],
            [81.718306546957905, 28.616169126428634],
            [81.717754264947445, 28.617108610907685],
            [81.716826925750766, 28.617411318493787],
            [81.715268995900345, 28.617571716980549],
            [81.713080475396154, 28.617697141190504],
            [81.71165168611536, 28.617206297514905],
            [81.710951029833424, 28.616239075498456],
            [81.71040699083801, 28.615621592444992],
            [81.709747549631459, 28.615558879119284],
            [81.708527583399402, 28.61636932536635],
            [81.708097572779323, 28.61699162806099],
            [81.707575515157473, 28.617756235237493],
            [81.706984765743286, 28.618118034800126],
            [81.706182445608661, 28.618782536749592],
            [81.705272966277988, 28.619135890883083],
            [81.704605968974306, 28.618988760637503],
            [81.70471244125244, 28.618675505186115],
            [81.704579866093198, 28.61842948292524],
            [81.704270753027643, 28.618360741308141],
            [81.703816013362271, 28.618202756017592],
            [81.703382568152591, 28.618036931506555],
            [81.701784797062601, 28.618051704973624],
            [81.701333320257433, 28.618073714420689],
            [81.700918078372666, 28.617984470606721],
            [81.700527222074228, 28.617789098749213],
            [81.699744135641453, 28.617606691054139],
            [81.699330267592543, 28.617608801558209],
            [81.699082805410598, 28.617653875884983],
            [81.698960534020216, 28.617754576986606],
            [81.698860930921313, 28.617917688446305],
            [81.698788804539348, 28.617997887333601],
            [81.698444658659696, 28.618081101151891],
            [81.697935652478378, 28.618196575290487],
            [81.697772852930498, 28.618285517425544],
            [81.697655389965618, 28.618371745999834],
            [81.697509763365829, 28.618365716031924],
            [81.697350398407565, 28.61825235257044],
            [81.697168365157879, 28.618092558121699],
            [81.696914892444113, 28.617947838411126],
            [81.696670693122343, 28.617936682925151],
            [81.69656404911467, 28.6179113569526],
            [81.696333244692383, 28.617841710496606],
            [81.696134381953541, 28.61776723999256],
            [81.69589876910581, 28.617710256453787],
            [81.695783710353624, 28.617718396961209],
            [81.695708492840964, 28.617800405000875],
            [81.695624688854281, 28.617951004156929],
            [81.695500871898574, 28.618089995378565],
            [81.695422906714256, 28.618115924306288],
            [81.695351810709155, 28.618076427913845],
            [81.694990835340377, 28.617659152142693],
            [81.694713320499346, 28.617538853400774],
            [81.694357497014991, 28.617528602373767],
            [81.693857420766705, 28.617601565544081],
            [81.693520830984184, 28.617730607721178],
            [81.69328315738268, 28.617941054669792],
            [81.692753543663713, 28.618071302426706],
            [81.692538538353674, 28.618265467764388],
            [81.692456108202862, 28.618384258182171],
            [81.692250032825825, 28.618521741340579],
            [81.691702902699788, 28.618593497829817],
            [81.691359443738065, 28.618571488491703],
            [81.69115886370443, 28.618614150423731],
            [81.691060634441342, 28.618695554768944],
            [81.690989538436241, 28.618864996203616],
            [81.690780715387532, 28.619209305180533],
            [81.690637836459473, 28.619577732625228],
            [81.690477097665379, 28.619800235644131],
            [81.690339714080693, 28.619955203592831],
            [81.69024766707895, 28.620074595086056],
            [81.690016175738734, 28.620212076031301],
            [81.68990558195307, 28.620236195476803],
            [81.689759955353281, 28.620142129607963],
            [81.689551132304558, 28.620125848968271],
            [81.689417183309473, 28.620143938567786],
            [81.689320327882271, 28.620180720743857],
            [81.689048308384557, 28.620386338900573],
            [81.689012588652545, 28.620441813524891],
            [81.688875205067845, 28.62061306109338],
            [81.688523846549955, 28.620863299115513],
            [81.688372037688865, 28.620844003674794],
            [81.688277929933378, 28.620757174147634],
            [81.688187943685364, 28.620615171537029],
            [81.688081127948308, 28.620401715022194],
            [81.687981524849405, 28.620228658150687],
            [81.687820099137369, 28.620132180328461],
            [81.687566626423632, 28.619931988564513],
            [81.687251331096732, 28.619777623570254],
            [81.687019839756559, 28.619786668400391],
            [81.686797965267289, 28.619935003503546],
            [81.686397492117891, 28.62017740431866],
            [81.686320557310452, 28.620484926935521],
            [81.686199659755914, 28.62052291496099],
            [81.685963359990254, 28.620485529920163],
            [81.685745778737981, 28.620427794125316],
            [81.685575423092985, 28.620232728306874],
            [81.685450404030917, 28.620127507181685],
            [81.685213073888335, 28.619980679819331],
            [81.685015928444301, 28.619920984036305],
            [81.684765890320179, 28.619814858116005],
            [81.684560501861057, 28.619665919853762],
            [81.684525469046946, 28.619532960619345],
            [81.684421400981549, 28.619331561730437],
            [81.684307372606256, 28.619239304026564],
            [81.684174453988092, 28.619182321286612],
            [81.683998946458658, 28.619163025536977],
            [81.683896080499622, 28.619091721681396],
            [81.683846965868071, 28.618985293426327],
            [81.683793729728976, 28.618757663226933],
            [81.683720572970159, 28.61857073474718],
            [81.683619424305903, 28.618431442663635],
            [81.683386902588794, 28.618285517425566],
            [81.683179453375914, 28.618286421921468],
            [81.682745321248277, 28.618480586861381],
            [81.682637131675321, 28.618611436944498],
            [81.682600381566431, 28.618792033911184],
            [81.682410792219528, 28.618984991929711],
            [81.682188230812343, 28.619275634275827],
            [81.681998641465469, 28.619574717675938],
            [81.68145425901109, 28.620026959102514],
            [81.681362555468311, 28.620135496755061],
            [81.681215555032679, 28.620194287936673],
            [81.680919493407657, 28.620238607421047],
            [81.680570539102533, 28.620227753671504],
            [81.680277225149226, 28.62028202240802],
            [81.680069775936332, 28.620222929782436],
            [81.679844123398482, 28.620107156378815],
            [81.679561113214035, 28.620099920536855],
            [81.679076836078011, 28.620260314916766],
            [81.679023256479994, 28.620449049343275],
            [81.678821302610487, 28.62048281648924],
            [81.678468226797818, 28.620622708835395],
            [81.677976393564634, 28.620681801235978],
            [81.677521653899305, 28.620267550747691],
            [81.676423959057601, 28.61952195604929],
            [81.676163960623569, 28.619046798720031],
            [81.675830118512764, 28.618196575290487],
            [81.67577379124306, 28.617954169902617],
            [81.675053901259275, 28.617374686098238],
            [81.674406137657471, 28.61698876378858],
            [81.673414228175972, 28.615897319579329],
            [81.673008946601115, 28.6152484777562],
            [81.672706702714791, 28.614694908793929],
            [81.672469029113273, 28.614318624957722],
            [81.672474524456661, 28.61386213778896],
            [81.67244567390388, 28.613397809307056],
            [81.672495131994395, 28.613089059881499],
            [81.672896292061708, 28.61229788533581],
            [81.672692277438443, 28.611692439813723],
            [81.672464907605786, 28.611302878399577],
            [81.672402398074752, 28.611127394380336],
            [81.672443613150165, 28.610893415231974],
            [81.672780889850586, 28.610554506366064],
            [81.673693116852959, 28.60954139149251],
            [81.673915678260187, 28.608782755028773],
            [81.673969257858246, 28.608218296998693],
            [81.673827752766002, 28.607704492821636],
            [81.673470555445803, 28.606579180528335],
            [81.673351031727051, 28.606309610359812],
            [81.673228073418784, 28.606123262792018],
            [81.672775394507227, 28.605439985548909],
            [81.672069242881904, 28.604577590451864],
            [81.671887896550132, 28.604298365906956],
            [81.671827447772898, 28.603901540115089],
            [81.671852863736063, 28.603133213577213],
            [81.670380798626056, 28.59951163018841],
            [81.67013762968115, 28.595646861999352],
            [81.669769441674205, 28.59406424425066],
            [81.669840881138228, 28.592547948644814],
            [81.669703497553542, 28.590873604777663],
            [81.671078707236333, 28.587178614697866],
            [81.672205252630874, 28.580349236415231],
            [81.672067869046217, 28.578672285393413],
            [81.672098780352755, 28.578391785579996],
            [81.67200055108971, 28.578000291041402],
            [81.671300925184681, 28.577235394579624],
            [81.670556993073561, 28.576721740561052],
            [81.670128356289325, 28.576260867410092],
            [81.670098818818616, 28.575355402629587],
            [81.67028840816549, 28.574537401097086],
            [81.669884500426491, 28.574325057476504],
            [81.669657817511776, 28.574075311874239],
            [81.669336339923589, 28.573805055095647],
            [81.668777188733898, 28.572888107280193],
            [81.668691323993443, 28.572173847655151],
            [81.668838324429089, 28.571839640050438],
            [81.668904612008689, 28.571335310319498],
            [81.668625379872807, 28.570894623091032],
            [81.667839889227309, 28.570753156368298],
            [81.667570617401367, 28.569822306621951],
            [81.667551383699518, 28.569613573144064],
            [81.667376219629034, 28.567678847474347],
            [81.667275929612217, 28.567190183352704],
            [81.667106947803035, 28.566273177888696],
            [81.66707741033234, 28.564717870089027],
            [81.667830959294363, 28.563393004819748],
            [81.668637744395511, 28.562692557015762],
            [81.669159115099376, 28.56188199854925],
            [81.669073937276849, 28.56048711145727],
            [81.669310237042538, 28.560236126350443],
            [81.669826799320958, 28.55998031399114],
            [81.67169521607282, 28.558829150680946],
            [81.671963800980876, 28.558482230548147],
            [81.671960366391275, 28.55824149747102],
            [81.672166441768283, 28.557828810915172],
            [81.672002268384617, 28.557515674861282],
            [81.671790697664179, 28.557267699406299],
            [81.671732309640717, 28.556877332968849],
            [81.671831225821677, 28.555949377265719],
            [81.67269674240525, 28.555611497995351],
            [81.673284744147722, 28.555286891532162],
            [81.673966166727809, 28.554391503460895],
            [81.674111793327583, 28.553877436248683],
            [81.674012877146609, 28.553443011295705],
            [81.673790315739438, 28.552798610980837],
            [81.673856946778002, 28.55240641784744],
            [81.67434191083197, 28.551782526068134],
            [81.674828935639667, 28.550890728499105],
            [81.675223226527734, 28.550293980170522],
            [81.675489063764132, 28.549811872630602],
            [81.675559129392354, 28.549363552875178],
            [81.675799894124509, 28.548179991618465],
            [81.675983816398528, 28.547948889397766],
            [81.676542624129269, 28.547549739067644],
            [81.676874405486302, 28.54709115178693],
            [81.677117574431279, 28.546595754599227],
            [81.676414170477614, 28.545305659392064],
            [81.676227328802455, 28.54354065321423],
            [81.675940884028392, 28.542917915771199],
            [81.676218398869494, 28.542261382387267],
            [81.676792662253519, 28.541412951751486],
            [81.677628297907418, 28.540535549013569],
            [81.677991677488947, 28.540365679619878],
            [81.678083037572762, 28.539974043633041],
            [81.678078916065218, 28.539685294134031],
            [81.677926420286227, 28.539431845645733],
            [81.677576779063202, 28.539057102835052],
            [81.677422909448325, 28.538743910961095],
            [81.677435273970985, 28.538442183805078],
            [81.677965574607896, 28.537538204073137],
            [81.678188136015123, 28.536814049160022],
            [81.678190883686824, 28.536593180921024],
            [81.678234846433909, 28.5350386416394],
            [81.677883144457113, 28.533440628597347],
            [81.678102958192653, 28.532214342337458],
            [81.678778885429367, 28.529708618565657],
            [81.679027549717716, 28.52752028602022],
            [81.677292395042969, 28.525191888929935],
            [81.676807430989015, 28.524187004935673],
            [81.676265796206309, 28.523490521159587],
            [81.67555483615547, 28.522969060623517],
            [81.674582160375834, 28.52276310110749],
            [81.67424574232281, 28.522632735315778],
            [81.673879700934307, 28.522297766917273],
            [81.673799846725714, 28.521987693870084],
            [81.673760177215655, 28.521651818095144],
            [81.673579346072273, 28.52109413519992],
            [81.671321790316767, 28.519716211242425],
            [81.668084346143317, 28.516970268344846],
            [81.667493940188081, 28.516693225624412],
            [81.665351786643654, 28.51759678057098],
            [81.661757832067906, 28.518174399816765],
            [81.659941277619225, 28.518565513246166],
            [81.65789443393669, 28.518326952333915],
            [81.655499838055391, 28.517449659176009],
            [81.651704959987072, 28.515274954676592],
            [81.649648327724123, 28.514843992091052],
            [81.645203281841233, 28.51498704289245],
            [81.638786094600022, 28.516035472590147],
            [81.634436616173218, 28.516229675392552],
            [81.632649942654226, 28.516202061496074],
            [81.629842423236155, 28.51544403457973],
            [81.628163166507491, 28.514739646368309],
            [81.619568792908041, 28.51388133663594],
            [81.61617060994061, 28.513411436260206],
            [81.614910459010019, 28.512639129167766],
            [81.613768801421216, 28.512430885959109],
            [81.607773038326215, 28.509372379644574],
            [81.605435628362159, 28.507672416610255],
            [81.603728293863369, 28.507425229291215],
            [81.601610869364279, 28.506148538312569],
            [81.599778859262386, 28.505572664134057],
            [81.597634129775855, 28.505791786440398],
            [81.597483179562133, 28.50582393037681],
            [81.596015922877598, 28.506155329262903],
            [81.59419009503705, 28.506694982051766],
            [81.592438454332225, 28.508263219119641],
            [81.589858390611681, 28.510563921956987],
            [81.588972266490401, 28.511161498899806],
            [81.587901704906727, 28.511881302994897],
            [81.587105223574454, 28.512421831897207],
            [81.586506574604144, 28.512823831495709],
            [81.585704941387434, 28.513372504150563],
            [81.584795118597881, 28.514017598299347],
            [81.584049125732975, 28.514980931548905],
            [81.581658651359305, 28.516333566954678],
            [81.579365032412852, 28.518138864554768],
            [81.578342898542729, 28.519603722239861],
            [81.577778252009622, 28.520418529202054],
            [81.577356827863568, 28.520945434351752],
            [81.576917887310472, 28.521244193833823],
            [81.575741196907572, 28.52235774444506],
            [81.575410445927446, 28.523110063444594],
            [81.57539705102792, 28.52375555067762],
            [81.575658766756774, 28.526230636196935],
            [81.574986961027605, 28.527020044080544],
            [81.574565536881536, 28.52729705966593],
            [81.573186892609158, 28.528455809778141],
            [81.572014323713802, 28.528765411167221],
            [81.570563553059444, 28.528707474134325],
            [81.567892816173028, 28.528698421470068],
            [81.566697578986179, 28.529049664273373],
            [81.565511615191326, 28.52925334835248],
            [81.564907814336621, 28.529620883961478],
            [81.564508028105124, 28.530107911931957],
            [81.564252494637614, 28.531465784723135],
            [81.563273636596605, 28.532800104009493],
            [81.56210312845505, 28.53549403772745],
            [81.561229368856402, 28.537050984143036],
            [81.561155181720665, 28.538198764791758],
            [81.561282948454419, 28.539444291790613],
            [81.560549320112131, 28.541352381628354],
            [81.559951701518742, 28.542438565340362],
            [81.559106792472832, 28.543293021989761],
            [81.557759059507006, 28.544400908851053],
            [81.55602802633986, 28.5462328792058],
            [81.554920714647153, 28.54757485571422],
            [81.55476684503229, 28.548018959282171],
            [81.554291497829269, 28.549363326602503],
            [81.553890337761942, 28.550171869598618],
            [81.553225401212018, 28.551499314786014],
            [81.55315121407628, 28.552428516460491],
            [81.553425981245681, 28.554052789562657],
            [81.553755701848928, 28.554603057680193],
            [81.553623813607615, 28.555365705228301],
            [81.551117937022781, 28.557885298990993],
            [81.548271349147939, 28.56076200281176],
            [81.546853550553877, 28.563030488972167],
            [81.546369960335767, 28.564652185278344],
            [81.546078707136218, 28.566833713509848],
            [81.546070464121129, 28.568192319412304],
            [81.546312259230191, 28.569727064482638],
            [81.546031996717446, 28.572912312995022],
            [81.546086950151292, 28.574128473351461],
            [81.546361717320693, 28.575605220597691],
            [81.546053978090967, 28.576700702710422],
            [81.545592369246407, 28.577733437514784],
            [81.544757077051472, 28.578582781904736],
            [81.543135950752088, 28.579614291791898],
            [81.541576647065767, 28.579866437114536],
            [81.537202353729143, 28.579982254859182],
            [81.535114466700733, 28.581062912720252],
            [81.53388110556908, 28.582631550940718],
            [81.533504674547046, 28.585029854317497],
            [81.533106262151492, 28.585654755369369],
            [81.532710597427524, 28.585861044283529],
            [81.535112062488039, 28.587844292493067],
            [81.535434226994155, 28.587986037815323],
            [81.535806536508701, 28.58797578390481],
            [81.535976205235798, 28.587934165081258],
            [81.536254864940005, 28.588096015969196],
            [81.536395912086959, 28.588309940238759],
            [81.536677090490343, 28.588826251908376],
            [81.536856605040981, 28.589681940431731],
            [81.536781502014733, 28.590084047294866],
            [81.536583669652771, 28.591817914474579],
            [81.536620305275392, 28.592467705197322],
            [81.537012306437049, 28.593168959985782],
            [81.537129540429348, 28.593670772467377],
            [81.537158848927405, 28.594027829889793],
            [81.537380494444065, 28.594539288408917],
            [81.53748856953068, 28.595142420257268],
            [81.537560008994703, 28.595423880602134],
            [81.537680906549255, 28.595636181620733],
            [81.537906215628155, 28.595834007183932],
            [81.538184646359809, 28.596083299030067],
            [81.538398964751934, 28.596240915505128],
            [81.53882576975505, 28.596515135441745],
            [81.53930020106759, 28.596784529697459],
            [81.539945903915651, 28.59725255031476],
            [81.540238073005753, 28.597637740977518],
            [81.540535737439228, 28.59785807905174],
            [81.540742728706846, 28.598081633268087],
            [81.541158543023158, 28.598477274816382],
            [81.541412244709562, 28.598939658884699],
            [81.542215480734754, 28.599588601441521],
            [81.542318976368591, 28.599862008506058],
            [81.542318060477996, 28.600032485492132],
            [81.542297452940332, 28.600130992115098],
            [81.541801040254299, 28.600820937955355],
            [81.541647170639493, 28.601079867509608],
            [81.542857977965951, 28.602581699950317],
            [81.543786690998473, 28.602982149237629],
            [81.544328898212697, 28.603461042410007],
            [81.544959437983607, 28.603791620378768],
            [81.545306255210733, 28.604550337556834],
            [81.545202861342588, 28.605280816559027],
            [81.545788624241482, 28.605753981264982],
            [81.546181846590542, 28.606729608712762],
            [81.547291498892392, 28.606862550652597],
            [81.548250131016658, 28.6066138204345],
            [81.548774631013288, 28.606849685310909],
            [81.548879856662623, 28.607588546477199],
            [81.549859520348036, 28.607641436944196],
            [81.550486396556678, 28.608008810534294],
            [81.551225622007948, 28.609106635241002],
            [81.552517366922828, 28.609103776337392],
            [81.552922258396123, 28.609763228041896],
            [81.553993104075488, 28.610380269059636],
            [81.554505460041725, 28.610223984109876],
            [81.555029756507196, 28.610582295601354],
            [81.556485411911197, 28.610291644086182],
            [81.557750019327841, 28.610379316103327],
            [81.559619250204619, 28.610581342646871],
            [81.56118888310111, 28.610516541722408],
            [81.561625254072354, 28.610449834846637],
            [81.563042916978844, 28.610234466644268],
            [81.565068459845349, 28.610154418173291],
            [81.569076125581105, 28.611503798530816],
            [81.571238441438567, 28.611174078659612],
            [81.573362764798517, 28.611331315143474],
            [81.575978819626059, 28.610780509943893],
            [81.576394566098614, 28.611494269069301],
            [81.576789688072594, 28.612339528943558],
            [81.576885212066315, 28.613208605284402],
            [81.576896067065604, 28.613444931817675],
            [81.576969881060705, 28.615058703830226],
            [81.576803256821663, 28.616418979549429],
            [81.576188321112213, 28.617345195735332],
            [81.576569331587095, 28.618641122366203],
            [81.576736498576054, 28.618909834562714],
            [81.577155501548418, 28.619592093646016],
            [81.5775462815227, 28.620226704959162],
            [81.577637463516695, 28.620850830963018],
            [81.577726474510825, 28.621468283267323],
            [81.577852392502507, 28.622329661279913],
            [81.577953343995844, 28.623030954973817],
            [81.578086317737075, 28.62393329200647],
            [81.578293648223379, 28.624342056705352],
            [81.578515090208768, 28.624786074365058],
            [81.578754985692967, 28.625259627610703],
            [81.579021204550386, 28.625788203886611]
          ]
        ]
      }
    }
  ]
}
